[{"OBJECT_NAME":"STARLINK-2232","OBJECT_ID":"2021-041AB","EPOCH":"2026-03-09T19:12:32.089824","MEAN_MOTION":15.30210888,"ECCENTRICITY":0.00013627,"INCLINATION":53.1585,"RA_OF_ASC_NODE":126.189,"ARG_OF_PERICENTER":96.9551,"MEAN_ANOMALY":263.1605,"EPHEMERIS_TYPE":0,"CLASSIFICATION_TYPE":"U","NORAD_CAT_ID":48578,"ELEMENT_SET_NO":999,"REV_AT_EPOCH":26529,"BSTAR":0.00053127328,"MEAN_MOTION_DOT":0.00015414,"MEAN_MOTION_DDOT":0},{"OBJECT_NAME":"OBJECT AL","OBJECT_ID":"2023-085AL","EPOCH":"2026-03-09T22:26:04.970400","MEAN_MOTION":15.31857284,"ECCENTRICITY":0.000802,"INCLINATION":97.4839,"RA_OF_ASC_NODE":180.0127,"ARG_OF_PERICENTER":78.7242,"MEAN_ANOMALY":281.49,"EPHEMERIS_TYPE":0,"CLASSIFICATION_TYPE":"U","NORAD_CAT_ID":57038,"ELEMENT_SET_NO":999,"REV_AT_EPOCH":15154,"BSTAR":0.0006591637,"MEAN_MOTION_DOT":0.00020246,"MEAN_MOTION_DDOT":0}]
